{"type": "FeatureCollection", "features": [ {"type": "Feature", "properties": {"norad_id": 35885, "name": "COSMOS 2251 DEB", "group": "cosmos-2251-debris", "lat": 47.11615256891561, "lon": -50.00159249313766, "alt_km": 748.9868386498447, "timestamp": "2025-12-14T05:42:18.859537+00:00", "meta": {"OBJECT_NAME": "COSMOS 2251 DEB", "OBJECT_ID": "1993-036ATY", "EPOCH": "2025-12-13T12:46:26.419872", "MEAN_MOTION": 14.37522358, "ECCENTRICITY": 0.00232582, "INCLINATION": 74.0285, "RA_OF_ASC_NODE": 293.3358, "ARG_OF_PERICENTER": 13.5954, "MEAN_ANOMALY": 346.5821, "EPHEMERIS_TYPE": 0, "CLASSIFICATION_TYPE": "U", "NORAD_CAT_ID": 35885, "ELEMENT_SET_NO": 999, "REV_AT_EPOCH": 65027, "BSTAR": 0.00047052352, "MEAN_MOTION_DOT": 1.388e-05, "MEAN_MOTION_DDOT": 0}, "tle": {"line1": "1 35885U 93036ATY 25347.53225023  .00001388  00000+0  47052-3 0  9993", "line2": "2 35885  74.0285 293.3358 0023258  13.5954 346.5821 14.37522358650276"}}, "geometry": {"type": "Point", "coordinates": [-50.00159249313766, 47.11615256891561]}}, {"type": "Feature", "properties": {"norad_id": 35888, "name": "COSMOS 2251 DEB", "group": "cosmos-2251-debris", "lat": 60.20056415702804, "lon": 143.82318381205698, "alt_km": 658.7863371813492, "timestamp": "2025-12-14T05:42:18.859548+00:00", "meta": {"OBJECT_NAME": "COSMOS 2251 DEB", "OBJECT_ID": "1993-036AUB", "EPOCH": "2025-12-12T07:04:48.029376", "MEAN_MOTION": 14.58316356, "ECCENTRICITY": 0.00482275, "INCLINATION": 74.0337, "RA_OF_ASC_NODE": 357.5138, "ARG_OF_PERICENTER": 129.7983, "MEAN_ANOMALY": 230.7443, "EPHEMERIS_TYPE": 0, "CLASSIFICATION_TYPE": "U", "NORAD_CAT_ID": 35888, "ELEMENT_SET_NO": 999, "REV_AT_EPOCH": 86267, "BSTAR": 0.00060064021, "MEAN_MOTION_DOT": 2.795e-05, "MEAN_MOTION_DDOT": 0}, "tle": {"line1": "1 35888U 93036AUB 25346.29500034  .00002795  00000+0  60064-3 0  9997", "line2": "2 35888  74.0337 357.5138 0048227 129.7983 230.7443 14.58316356862676"}}, "geometry": {"type": "Point", "coordinates": [143.82318381205698, 60.20056415702804]}}, {"type": "Feature", "properties": {"norad_id": 35890, "name": "COSMOS 2251 DEB", "group": "cosmos-2251-debris", "lat": 25.20250488322648, "lon": 52.042858053039915, "alt_km": 732.7902521980222, "timestamp": "2025-12-14T05:42:18.859558+00:00", "meta": {"OBJECT_NAME": "COSMOS 2251 DEB", "OBJECT_ID": "1993-036AUD", "EPOCH": "2025-12-13T10:53:03.299424", "MEAN_MOTION": 14.57503186, "ECCENTRICITY": 0.00538039, "INCLINATION": 73.9362, "RA_OF_ASC_NODE": 241.3354, "ARG_OF_PERICENTER": 5.8757, "MEAN_ANOMALY": 354.3025, "EPHEMERIS_TYPE": 0, "CLASSIFICATION_TYPE": "U", "NORAD_CAT_ID": 35890, "ELEMENT_SET_NO": 999, "REV_AT_EPOCH": 65161, "BSTAR": 0.0029822973, "MEAN_MOTION_DOT": 0.00013825, "MEAN_MOTION_DDOT": 0}, "tle": {"line1": "1 35890U 93036AUD 25347.45351041  .00013825  00000+0  29823-2 0  9994", "line2": "2 35890  73.9362 241.3354 0053803   5.8757 354.3025 14.57503186651611"}}, "geometry": {"type": "Point", "coordinates": [52.042858053039915, 25.20250488322648]}}, {"type": "Feature", "properties": {"norad_id": 35891, "name": "COSMOS 2251 DEB", "group": "cosmos-2251-debris", "lat": 72.20101220987374, "lon": -152.7739844809717, "alt_km": 474.1926846652659, "timestamp": "2025-12-14T05:42:18.859568+00:00", "meta": {"OBJECT_NAME": "COSMOS 2251 DEB", "OBJECT_ID": "1993-036AUE", "EPOCH": "2025-12-12T23:31:35.861952", "MEAN_MOTION": 15.33352498, "ECCENTRICITY": 0.00436495, "INCLINATION": 73.9891, "RA_OF_ASC_NODE": 93.3587, "ARG_OF_PERICENTER": 223.8568, "MEAN_ANOMALY": 135.9169, "EPHEMERIS_TYPE": 0, "CLASSIFICATION_TYPE": "U", "NORAD_CAT_ID": 35891, "ELEMENT_SET_NO": 999, "REV_AT_EPOCH": 67224, "BSTAR": 0.0018817485, "MEAN_MOTION_DOT": 0.00063011, "MEAN_MOTION_DDOT": 0}, "tle": {"line1": "1 35891U 93036AUE 25346.98027618  .00063011  00000+0  18817-2 0  9995", "line2": "2 35891  73.9891  93.3587 0043649 223.8568 135.9169 15.33352498672248"}}, "geometry": {"type": "Point", "coordinates": [-152.7739844809717, 72.20101220987374]}}, {"type": "Feature", "properties": {"norad_id": 35895, "name": "COSMOS 2251 DEB", "group": "cosmos-2251-debris", "lat": 59.09868277784726, "lon": 13.610418474416687, "alt_km": 746.1493044409845, "timestamp": "2025-12-14T05:42:18.859580+00:00", "meta": {"OBJECT_NAME": "COSMOS 2251 DEB", "OBJECT_ID": "1993-036AUJ", "EPOCH": "2025-12-11T07:10:31.732032", "MEAN_MOTION": 14.01513994, "ECCENTRICITY": 0.01987879, "INCLINATION": 74.0502, "RA_OF_ASC_NODE": 350.1634, "ARG_OF_PERICENTER": 88.7843, "MEAN_ANOMALY": 273.6056, "EPHEMERIS_TYPE": 0, "CLASSIFICATION_TYPE": "U", "NORAD_CAT_ID": 35895, "ELEMENT_SET_NO": 999, "REV_AT_EPOCH": 58992, "BSTAR": 0.0020881347, "MEAN_MOTION_DOT": 3.73e-05, "MEAN_MOTION_DDOT": 0}, "tle": {"line1": "1 35895U 93036AUJ 25345.29897838  .00003730  00000+0  20881-2 0  9997", "line2": "2 35895  74.0502 350.1634 0198787  88.7843 273.6056 14.01513994589929"}}, "geometry": {"type": "Point", "coordinates": [13.610418474416687, 59.09868277784726]}}, {"type": "Feature", "properties": {"norad_id": 35898, "name": "COSMOS 2251 DEB", "group": "cosmos-2251-debris", "lat": 65.04023961542298, "lon": -27.486994646723872, "alt_km": 521.7792546732571, "timestamp": "2025-12-14T05:42:18.859590+00:00", "meta": {"OBJECT_NAME": "COSMOS 2251 DEB", "OBJECT_ID": "1993-036AUM", "EPOCH": "2025-12-11T03:33:58.696128", "MEAN_MOTION": 14.94658859, "ECCENTRICITY": 0.00792199, "INCLINATION": 73.9916, "RA_OF_ASC_NODE": 300.6702, "ARG_OF_PERICENTER": 84.5945, "MEAN_ANOMALY": 290.8859, "EPHEMERIS_TYPE": 0, "CLASSIFICATION_TYPE": "U", "NORAD_CAT_ID": 35898, "ELEMENT_SET_NO": 999, "REV_AT_EPOCH": 66786, "BSTAR": 0.001087469, "MEAN_MOTION_DOT": 0.00012532, "MEAN_MOTION_DDOT": 0}, "tle": {"line1": "1 35898U 93036AUM 25345.14859602  .00012532  00000+0  10875-2 0  9993", "line2": "2 35898  73.9916 300.6702 0079219  84.5945 290.8859 14.94658859667864"}}, "geometry": {"type": "Point", "coordinates": [-27.486994646723872, 65.04023961542298]}}, {"type": "Feature", "properties": {"norad_id": 35901, "name": "COSMOS 2251 DEB", "group": "cosmos-2251-debris", "lat": 36.479908407958945, "lon": -172.44758515128498, "alt_km": 545.8900757744768, "timestamp": "2025-12-14T05:42:18.859601+00:00", "meta": {"OBJECT_NAME": "COSMOS 2251 DEB", "OBJECT_ID": "1993-036AUQ", "EPOCH": "2025-12-07T10:36:21.692736", "MEAN_MOTION": 15.06319673, "ECCENTRICITY": 0.00066034, "INCLINATION": 74.0121, "RA_OF_ASC_NODE": 33.7639, "ARG_OF_PERICENTER": 0.5644, "MEAN_ANOMALY": 13.1472, "EPHEMERIS_TYPE": 0, "CLASSIFICATION_TYPE": "U", "NORAD_CAT_ID": 35901, "ELEMENT_SET_NO": 999, "REV_AT_EPOCH": 86047, "BSTAR": 0.0047775116, "MEAN_MOTION_DOT": 0.0007096, "MEAN_MOTION_DDOT": 0}, "tle": {"line1": "1 35901U 93036AUQ 25341.44191774  .00070960  00000+0  47775-2 0  9994", "line2": "2 35901  74.0121  33.7639 0006603   0.5644  13.1472 15.06319673860474"}}, "geometry": {"type": "Point", "coordinates": [-172.44758515128498, 36.479908407958945]}}, {"type": "Feature", "properties": {"norad_id": 35902, "name": "COSMOS 2251 DEB", "group": "cosmos-2251-debris", "lat": -4.477990754575987, "lon": -129.4248286822784, "alt_km": 732.8597145259773, "timestamp": "2025-12-14T05:42:18.859611+00:00", "meta": {"OBJECT_NAME": "COSMOS 2251 DEB", "OBJECT_ID": "1993-036AUR", "EPOCH": "2025-12-12T01:33:56.017152", "MEAN_MOTION": 14.26898947, "ECCENTRICITY": 0.01020569, "INCLINATION": 73.9828, "RA_OF_ASC_NODE": 235.8058, "ARG_OF_PERICENTER": 350.6999, "MEAN_ANOMALY": 9.2255, "EPHEMERIS_TYPE": 0, "CLASSIFICATION_TYPE": "U", "NORAD_CAT_ID": 35902, "ELEMENT_SET_NO": 999, "REV_AT_EPOCH": 61120, "BSTAR": 0.0016300387, "MEAN_MOTION_DOT": 4.159e-05, "MEAN_MOTION_DDOT": 0}, "tle": {"line1": "1 35902U 93036AUR 25346.06523168  .00004159  00000+0  16300-2 0  9991", "line2": "2 35902  73.9828 235.8058 0102056 350.6999   9.2255 14.26898947611205"}}, "geometry": {"type": "Point", "coordinates": [-129.4248286822784, -4.477990754575987]}}, {"type": "Feature", "properties": {"norad_id": 35905, "name": "COSMOS 2251 DEB", "group": "cosmos-2251-debris", "lat": -21.730022262016018, "lon": -158.78049085502786, "alt_km": 533.9633331031437, "timestamp": "2025-12-14T05:42:18.859622+00:00", "meta": {"OBJECT_NAME": "COSMOS 2251 DEB", "OBJECT_ID": "1993-036AUU", "EPOCH": "2025-12-12T21:46:16.127040", "MEAN_MOTION": 14.99027682, "ECCENTRICITY": 0.00908923, "INCLINATION": 74.032, "RA_OF_ASC_NODE": 210.4725, "ARG_OF_PERICENTER": 290.4597, "MEAN_ANOMALY": 68.6848, "EPHEMERIS_TYPE": 0, "CLASSIFICATION_TYPE": "U", "NORAD_CAT_ID": 35905, "ELEMENT_SET_NO": 999, "REV_AT_EPOCH": 88585, "BSTAR": 0.00081105566, "MEAN_MOTION_DOT": 0.00010695, "MEAN_MOTION_DDOT": 0}, "tle": {"line1": "1 35905U 93036AUU 25346.90713110  .00010695  00000+0  81106-3 0  9994", "line2": "2 35905  74.0320 210.4725 0090892 290.4597  68.6848 14.99027682885857"}}, "geometry": {"type": "Point", "coordinates": [-158.78049085502786, -21.730022262016018]}}, {"type": "Feature", "properties": {"norad_id": 35959, "name": "COSMOS 2251 DEB", "group": "cosmos-2251-debris", "lat": 57.05661564839985, "lon": 103.10033945881551, "alt_km": 771.9958242199555, "timestamp": "2025-12-14T05:42:18.859632+00:00", "meta": {"OBJECT_NAME": "COSMOS 2251 DEB", "OBJECT_ID": "1993-036AUZ", "EPOCH": "2025-12-13T07:23:22.047648", "MEAN_MOTION": 14.34136813, "ECCENTRICITY": 0.00215686, "INCLINATION": 74.0325, "RA_OF_ASC_NODE": 311.0234, "ARG_OF_PERICENTER": 31.3363, "MEAN_ANOMALY": 328.9069, "EPHEMERIS_TYPE": 0, "CLASSIFICATION_TYPE": "U", "NORAD_CAT_ID": 35959, "ELEMENT_SET_NO": 999, "REV_AT_EPOCH": 84936, "BSTAR": 0.00020716976, "MEAN_MOTION_DOT": 5.55e-06, "MEAN_MOTION_DDOT": 0}, "tle": {"line1": "1 35959U 93036AUZ 25347.30789407  .00000555  00000+0  20717-3 0  9995", "line2": "2 35959  74.0325 311.0234 0021568  31.3363 328.9069 14.34136813849360"}}, "geometry": {"type": "Point", "coordinates": [103.10033945881551, 57.05661564839985]}}]}